0 EUTE 172A (GE 23)
1 28924U 05052A   13281.54452265 -.00000017  00000-0  10000-3 0  4803
2 28924 000.0250 305.3818 0002602 250.9583 189.0392 01.00272075 28516
0 EUTE 172A (GE 23)
1 28924U 05052A   13282.79689127 -.00000021  00000-0  10000-3 0  4816
2 28924 000.0225 307.2302 0002630 249.8660 280.3676 01.00272125 28528
0 EUTE 172A (GE 23)
1 28924U 05052A   13283.27569053  .00000000  00000-0  10000-3 0  4822
2 28924 000.0212 359.5605 0002704 181.4133 109.3935 01.00271192 28529
0 EUTE 172A (GE 23)
1 28924U 05052A   13284.25010626 -.00000025  00000-0  10000-3 0  4826
2 28924 000.0203 310.3529 0002641 245.9563 085.7461 01.00272376 28539
0 EUTE 172A (GE 23)
1 28924U 05052A   13285.43326243 -.00000028  00000-0  10000-3 0  4836
2 28924 000.0179 312.9508 0002634 241.5695 154.6369 01.00272457 28540
0 EUTE 172A (GE 23)
1 28924U 05052A   13286.44819422 -.00000030  00000-0  10000-3 0  4848
2 28924 000.0164 320.0439 0002617 234.6368 160.8504 01.00272488 28553
0 EUTE 172A (GE 23)
1 28924U 05052A   13289.76147778 -.00000029  00000-0  10000-3 0  4853
2 28924 000.0399 285.8966 0002893 285.9492 259.7187 01.00272092 28599
0 EUTE 172A (GE 23)
1 28924U 05052A   13290.77359394 -.00000027  00000-0  10000-3 0  4864
2 28924 000.0378 286.2485 0002915 288.9537 261.7222 01.00272418 28602
0 EUTE 172A (GE 23)
1 28924U 05052A   13291.20112441 -.00000026  00000-0  10000-3 0  4873
2 28924 000.0366 289.5312 0002116 285.4336 056.2861 01.00271993 28609
0 EUTE 172A (GE 23)
1 28924U 05052A   13292.48318925 -.00000023  00000-0  10000-3 0  4887
2 28924 000.0343 289.5372 0002097 287.2606 157.2670 01.00272766 28629
0 EUTE 172A (GE 23)
1 28924U 05052A   13293.70155516 -.00000021  00000-0  10000-3 0  4897
2 28924 000.0318 290.2755 0002295 284.9300 238.6736 01.00272763 28635
0 EUTE 172A (GE 23)
1 28924U 05052A   13294.77320718 -.00000019  00000-0  10000-3 0  4902
2 28924 000.0296 291.9053 0002441 283.5942 265.2338 01.00272904 28641
0 EUTE 172A (GE 23)
1 28924U 05052A   13294.77320718 -.00000019  00000-0  10000-3 0  4913
2 28924 000.0221 306.3094 0002744 261.4614 272.9682 01.00272985 28648
